ATLAS CENTAUR 2         
1 00694U 63047A   26004.49070578  .00002491  00000+0  29044-3 0  9998
2 00694  30.3550 194.3639 0548723 234.6161 120.1977 14.11866353122543
THOR AGENA D R/B        
1 00733U 64002A   26004.46938368  .00000424  00000+0  16826-3 0  9999
2 00733  99.1215  14.3171 0033852  85.5854 274.9195 14.33976346229090
SL-3 R/B                
1 00877U 64053B   26004.49912419  .00000489  00000+0  11925-3 0  9992
2 00877  65.0765 159.4183 0075848 312.7903  46.6834 14.61297179257418
SL-8 R/B                
1 02802U 67045B   26004.42317344  .00000613  00000+0  17700-3 0  9991
2 02802  74.0118 108.1072 0063203 131.6581 229.0013 14.45564629 79732
SL-8 R/B                
1 03230U 68040B   26004.34384740  .00004913  00000+0  36800-3 0  9997
2 03230  74.0320  85.1210 0026310 283.5037  76.3220 15.02723256 80341
OAO 2                   
1 03597U 68110A   26004.07174136  .00000480  00000+0  13450-3 0  9998
2 03597  34.9932 265.9902 0005057  33.5448 326.5562 14.47261389  9736
ISIS 1                  
1 03669U 69009A   26004.36611095  .00000507  00000+0  36187-3 0  9990
2 03669  88.4508 162.3222 1707412 218.9800 127.5192 11.30370255341267
SERT 2                  
1 04327U 70009A   26004.49733462  .00000059  00000+0  13673-3 0  9998
2 04327  99.2679 311.1309 0004666 338.2919 132.2999 13.58721704771171
SL-3 R/B                
1 05118U 71028B   26004.45287419  .00038808  00000+0  54929-3 0  9993
2 05118  81.2390 131.0576 0018523 159.1324 201.0687 15.56115606978663
ASTEX 1                 
1 05560U 71089A   26004.39899743  .00001016  00000+0  25874-3 0  9991
2 05560  92.7154 130.9526 0013733 306.5567  53.4374 14.50677267852984
SL-8 R/B                
1 05730U 71119B   26004.25794345  .00011065  00000+0  57400-3 0  9996
2 05730  73.8903 296.0096 0557297 275.7477  78.0424 14.36312559646238
OAO 3 (COPERNICUS)      
1 06153U 72065A   26004.26408447  .00000717  00000+0  15173-3 0  9996
2 06153  35.0068 304.3565 0006669 347.2972 169.3492 14.59932376836770
