CCSDS_OMM_VERS = 2.0
CREATION_DATE  = 
ORIGINATOR     = 

OBJECT_NAME    = ATLAS CENTAUR 2
OBJECT_ID      = 1963-047A
CENTER_NAME    = EARTH
REF_FRAME      = TEME
TIME_SYSTEM    = UTC
MEAN_ELEMENT_THEORY = SGP/SGP4

EPOCH          = 2026-01-04T11:46:36.979392
MEAN_MOTION    = 14.11866353
ECCENTRICITY   = .0548723
INCLINATION    = 30.3550
RA_OF_ASC_NODE = 194.3639
ARG_OF_PERICENTER = 234.6161
MEAN_ANOMALY   = 120.1977

EPHEMERIS_TYPE = 0
CLASSIFICATION_TYPE = U
NORAD_CAT_ID   = 694
ELEMENT_SET_NO = 999
REV_AT_EPOCH   = 12254
BSTAR          = .29044E-3
MEAN_MOTION_DOT = .2491E-4
MEAN_MOTION_DDOT = 0

CCSDS_OMM_VERS = 2.0
CREATION_DATE  = 
ORIGINATOR     = 

OBJECT_NAME    = THOR AGENA D R/B
OBJECT_ID      = 1964-002A
CENTER_NAME    = EARTH
REF_FRAME      = TEME
TIME_SYSTEM    = UTC
MEAN_ELEMENT_THEORY = SGP/SGP4

EPOCH          = 2026-01-04T11:15:54.749952
MEAN_MOTION    = 14.33976346
ECCENTRICITY   = .0033852
INCLINATION    = 99.1215
RA_OF_ASC_NODE = 14.3171
ARG_OF_PERICENTER = 85.5854
MEAN_ANOMALY   = 274.9195

EPHEMERIS_TYPE = 0
CLASSIFICATION_TYPE = U
NORAD_CAT_ID   = 733
ELEMENT_SET_NO = 999
REV_AT_EPOCH   = 22909
BSTAR          = .16826E-3
MEAN_MOTION_DOT = .424E-5
MEAN_MOTION_DDOT = 0

CCSDS_OMM_VERS = 2.0
CREATION_DATE  = 
ORIGINATOR     = 

OBJECT_NAME    = SL-3 R/B
OBJECT_ID      = 1964-053B
CENTER_NAME    = EARTH
REF_FRAME      = TEME
TIME_SYSTEM    = UTC
MEAN_ELEMENT_THEORY = SGP/SGP4

EPOCH          = 2026-01-04T11:58:44.330016
MEAN_MOTION    = 14.61297179
ECCENTRICITY   = .0075848
INCLINATION    = 65.0765
RA_OF_ASC_NODE = 159.4183
ARG_OF_PERICENTER = 312.7903
MEAN_ANOMALY   = 46.6834

EPHEMERIS_TYPE = 0
CLASSIFICATION_TYPE = U
NORAD_CAT_ID   = 877
ELEMENT_SET_NO = 999
REV_AT_EPOCH   = 25741
BSTAR          = .11925E-3
MEAN_MOTION_DOT = .489E-5
MEAN_MOTION_DDOT = 0

CCSDS_OMM_VERS = 2.0
CREATION_DATE  = 
ORIGINATOR     = 

OBJECT_NAME    = SL-8 R/B
OBJECT_ID      = 1967-045B
CENTER_NAME    = EARTH
REF_FRAME      = TEME
TIME_SYSTEM    = UTC
MEAN_ELEMENT_THEORY = SGP/SGP4

EPOCH          = 2026-01-04T10:09:22.185216
MEAN_MOTION    = 14.45564629
ECCENTRICITY   = .0063203
INCLINATION    = 74.0118
RA_OF_ASC_NODE = 108.1072
ARG_OF_PERICENTER = 131.6581
MEAN_ANOMALY   = 229.0013

EPHEMERIS_TYPE = 0
CLASSIFICATION_TYPE = U
NORAD_CAT_ID   = 2802
ELEMENT_SET_NO = 999
REV_AT_EPOCH   = 7973
BSTAR          = .177E-3
MEAN_MOTION_DOT = .613E-5
MEAN_MOTION_DDOT = 0

CCSDS_OMM_VERS = 2.0
CREATION_DATE  = 
ORIGINATOR     = 

OBJECT_NAME    = SL-8 R/B
OBJECT_ID      = 1968-040B
CENTER_NAME    = EARTH
REF_FRAME      = TEME
TIME_SYSTEM    = UTC
MEAN_ELEMENT_THEORY = SGP/SGP4

EPOCH          = 2026-01-04T08:15:08.415360
MEAN_MOTION    = 15.02723256
ECCENTRICITY   = .002631
INCLINATION    = 74.0320
RA_OF_ASC_NODE = 85.1210
ARG_OF_PERICENTER = 283.5037
MEAN_ANOMALY   = 76.3220

EPHEMERIS_TYPE = 0
CLASSIFICATION_TYPE = U
NORAD_CAT_ID   = 3230
ELEMENT_SET_NO = 999
REV_AT_EPOCH   = 8034
BSTAR          = .368E-3
MEAN_MOTION_DOT = .4913E-4
MEAN_MOTION_DDOT = 0

CCSDS_OMM_VERS = 2.0
CREATION_DATE  = 
ORIGINATOR     = 

OBJECT_NAME    = OAO 2
OBJECT_ID      = 1968-110A
CENTER_NAME    = EARTH
REF_FRAME      = TEME
TIME_SYSTEM    = UTC
MEAN_ELEMENT_THEORY = SGP/SGP4

EPOCH          = 2026-01-04T01:43:18.453504
MEAN_MOTION    = 14.47261389
ECCENTRICITY   = .00050571
INCLINATION    = 34.9932
RA_OF_ASC_NODE = 265.9902
ARG_OF_PERICENTER = 33.5448
MEAN_ANOMALY   = 326.5562

EPHEMERIS_TYPE = 0
CLASSIFICATION_TYPE = U
NORAD_CAT_ID   = 3597
ELEMENT_SET_NO = 999
REV_AT_EPOCH   = 973
BSTAR          = .13450472E-3
MEAN_MOTION_DOT = .48E-5
MEAN_MOTION_DDOT = 0

CCSDS_OMM_VERS = 2.0
CREATION_DATE  = 
ORIGINATOR     = 

OBJECT_NAME    = ISIS 1
OBJECT_ID      = 1969-009A
CENTER_NAME    = EARTH
REF_FRAME      = TEME
TIME_SYSTEM    = UTC
MEAN_ELEMENT_THEORY = SGP/SGP4

EPOCH          = 2026-01-04T08:47:11.986080
MEAN_MOTION    = 11.30370255
ECCENTRICITY   = .1707412
INCLINATION    = 88.4508
RA_OF_ASC_NODE = 162.3222
ARG_OF_PERICENTER = 218.9800
MEAN_ANOMALY   = 127.5192

EPHEMERIS_TYPE = 0
CLASSIFICATION_TYPE = U
NORAD_CAT_ID   = 3669
ELEMENT_SET_NO = 999
REV_AT_EPOCH   = 34126
BSTAR          = .36187E-3
MEAN_MOTION_DOT = .507E-5
MEAN_MOTION_DDOT = 0

CCSDS_OMM_VERS = 2.0
CREATION_DATE  = 
ORIGINATOR     = 

OBJECT_NAME    = SERT 2
OBJECT_ID      = 1970-009A
CENTER_NAME    = EARTH
REF_FRAME      = TEME
TIME_SYSTEM    = UTC
MEAN_ELEMENT_THEORY = SGP/SGP4

EPOCH          = 2026-01-04T11:56:09.711168
MEAN_MOTION    = 13.58721704
ECCENTRICITY   = .0004666
INCLINATION    = 99.2679
RA_OF_ASC_NODE = 311.1309
ARG_OF_PERICENTER = 338.2919
MEAN_ANOMALY   = 132.2999

EPHEMERIS_TYPE = 0
CLASSIFICATION_TYPE = U
NORAD_CAT_ID   = 4327
ELEMENT_SET_NO = 999
REV_AT_EPOCH   = 77117
BSTAR          = .13673E-3
MEAN_MOTION_DOT = .59E-6
MEAN_MOTION_DDOT = 0

CCSDS_OMM_VERS = 2.0
CREATION_DATE  = 
ORIGINATOR     = 

OBJECT_NAME    = SL-3 R/B
OBJECT_ID      = 1971-028B
CENTER_NAME    = EARTH
REF_FRAME      = TEME
TIME_SYSTEM    = UTC
MEAN_ELEMENT_THEORY = SGP/SGP4

EPOCH          = 2026-01-04T10:52:08.330016
MEAN_MOTION    = 15.56115606
ECCENTRICITY   = .0018523
INCLINATION    = 81.2390
RA_OF_ASC_NODE = 131.0576
ARG_OF_PERICENTER = 159.1324
MEAN_ANOMALY   = 201.0687

EPHEMERIS_TYPE = 0
CLASSIFICATION_TYPE = U
NORAD_CAT_ID   = 5118
ELEMENT_SET_NO = 999
REV_AT_EPOCH   = 97866
BSTAR          = .54929E-3
MEAN_MOTION_DOT = .38808E-3
MEAN_MOTION_DDOT = 0

CCSDS_OMM_VERS = 2.0
CREATION_DATE  = 
ORIGINATOR     = 

OBJECT_NAME    = ASTEX 1
OBJECT_ID      = 1971-089A
CENTER_NAME    = EARTH
REF_FRAME      = TEME
TIME_SYSTEM    = UTC
MEAN_ELEMENT_THEORY = SGP/SGP4

EPOCH          = 2026-01-04T09:34:33.377952
MEAN_MOTION    = 14.50677267
ECCENTRICITY   = .0013733
INCLINATION    = 92.7154
RA_OF_ASC_NODE = 130.9526
ARG_OF_PERICENTER = 306.5567
MEAN_ANOMALY   = 53.4374

EPHEMERIS_TYPE = 0
CLASSIFICATION_TYPE = U
NORAD_CAT_ID   = 5560
ELEMENT_SET_NO = 999
REV_AT_EPOCH   = 85298
BSTAR          = .25874E-3
MEAN_MOTION_DOT = .1016E-4
MEAN_MOTION_DDOT = 0

CCSDS_OMM_VERS = 2.0
CREATION_DATE  = 
ORIGINATOR     = 

OBJECT_NAME    = SL-8 R/B
OBJECT_ID      = 1971-119B
CENTER_NAME    = EARTH
REF_FRAME      = TEME
TIME_SYSTEM    = UTC
MEAN_ELEMENT_THEORY = SGP/SGP4

EPOCH          = 2026-01-04T06:11:26.314080
MEAN_MOTION    = 14.36312559
ECCENTRICITY   = .0557297
INCLINATION    = 73.8903
RA_OF_ASC_NODE = 296.0096
ARG_OF_PERICENTER = 275.7477
MEAN_ANOMALY   = 78.0424

EPHEMERIS_TYPE = 0
CLASSIFICATION_TYPE = U
NORAD_CAT_ID   = 5730
ELEMENT_SET_NO = 999
REV_AT_EPOCH   = 64623
BSTAR          = .574E-3
MEAN_MOTION_DOT = .11065E-3
MEAN_MOTION_DDOT = 0

CCSDS_OMM_VERS = 2.0
CREATION_DATE  = 
ORIGINATOR     = 

OBJECT_NAME    = OAO 3 (COPERNICUS)
OBJECT_ID      = 1972-065A
CENTER_NAME    = EARTH
REF_FRAME      = TEME
TIME_SYSTEM    = UTC
MEAN_ELEMENT_THEORY = SGP/SGP4

EPOCH          = 2026-01-04T06:20:16.898208
MEAN_MOTION    = 14.59932376
ECCENTRICITY   = .0006669
INCLINATION    = 35.0068
RA_OF_ASC_NODE = 304.3565
ARG_OF_PERICENTER = 347.2972
MEAN_ANOMALY   = 169.3492

EPHEMERIS_TYPE = 0
CLASSIFICATION_TYPE = U
NORAD_CAT_ID   = 6153
ELEMENT_SET_NO = 999
REV_AT_EPOCH   = 83677
BSTAR          = .15173E-3
MEAN_MOTION_DOT = .717E-5
MEAN_MOTION_DDOT = 0

